NORAD_CAT_ID,OBJECT_NAME,OBJECT_TYPE,EPOCH,MEAN_MOTION,ECCENTRICITY,INCLINATION,RA_OF_ASC_NODE,ARG_OF_PERICENTER,MEAN_ANOMALY,BSTAR,MEAN_MOTION_DOT,MEAN_MOTION_DDOT,TLE_LINE0,TLE_LINE1,TLE_LINE2,SEMIMAJOR_AXIS,PERIOD,APOGEE,PERIGEE,DECAYED
53254.0,STARLINK-4134,PAYLOAD,2023-02-04 12:16:28,15.08840981,0.0001224,53.2131,223.2008,85.4692,274.644,7.2127e-05,8.6e-06,0.0,0 STARLINK-4134,1 53254U 22086N   23035.51144531  .00000860  00000-0  72127-4 0  9991,2 53254  53.2131 223.2008 0001224  85.4692 274.6440 15.08840981 30415,6917.877,95.437,540.589,538.896,0.0
53254.0,STARLINK-4134,PAYLOAD,2023-02-04 21:48:47,15.08841395,0.0001172,53.2138,221.4169,84.1602,275.9524,8.0826e-05,9.99e-06,0.0,0 STARLINK-4134,1 53254U 22086N   23035.90888428  .00000999  00000-0  80826-4 0  9992,2 53254  53.2138 221.4169 0001172  84.1602 275.9524 15.08841395 30674,6917.876,95.437,540.552,538.93,0.0
53254.0,STARLINK-4134,PAYLOAD,2023-02-05 07:21:06,15.08840919,0.0001179,53.214,219.6326,83.7582,276.3544,6.9831e-05,8.24e-06,0.0,0 STARLINK-4134,1 53254U 22086N   23036.30632510  .00000824  00000-0  69831-4 0  9996,2 53254  53.2140 219.6326 0001179  83.7582 276.3544 15.08840919 30735,6917.878,95.437,540.558,538.927,0.0
53254.0,STARLINK-4134,PAYLOAD,2023-02-05 18:28:48,15.08842453,0.0001134,53.2143,217.5509,84.7251,275.3871,7.4793e-05,9.03e-06,0.0,0 STARLINK-4134,1 53254U 22086N   23036.77000369  .00000903  00000-0  74793-4 0  9999,2 53254  53.2143 217.5509 0001134  84.7251 275.3871 15.08842453 30606,6917.873,95.437,540.522,538.953,0.0
53254.0,STARLINK-4134,PAYLOAD,2023-02-05 21:39:34,15.08843903,0.0001132,53.2144,216.9561,84.2439,275.8682,5.8519e-05,6.44e-06,0.0,0 STARLINK-4134,1 53254U 22086N   23036.90248282  .00000644  00000-0  58519-4 0  9992,2 53254  53.2144 216.9561 0001132  84.2439 275.8682 15.08843903 30829,6917.868,95.437,540.517,538.95,0.0
53254.0,STARLINK-4134,PAYLOAD,2023-02-06 07:11:53,15.08840002,0.0001134,53.2143,215.1717,84.7231,275.389,6.5317e-05,7.52e-06,0.0,0 STARLINK-4134,1 53254U 22086N   23037.29992546  .00000752  00000-0  65317-4 0  9998,2 53254  53.2143 215.1717 0001134  84.7231 275.3890 15.08840002 30888,6917.88,95.438,540.53,538.961,0.0
53254.0,STARLINK-4134,PAYLOAD,2023-02-06 18:19:35,15.08844243,0.0001125,53.2145,213.0902,83.8208,276.2913,7.1396e-05,8.49e-06,0.0,0 STARLINK-4134,1 53254U 22086N   23037.76360255  .00000849  00000-0  71396-4 0  9997,2 53254  53.2145 213.0902 0001125  83.8208 276.2913 15.08844243 30952,6917.867,95.437,540.511,538.954,0.0
53254.0,STARLINK-4134,PAYLOAD,2023-02-07 18:10:22,15.08842848,0.0001085,53.2144,208.6289,93.0207,267.0909,8.6812e-05,1.094e-05,0.0,0 STARLINK-4134,1 53254U 22086N   23038.75720214  .00001094  00000-0  86812-4 0  9994,2 53254  53.2144 208.6289 0001085  93.0207 267.0909 15.08842848 30903,6917.872,95.437,540.487,538.986,0.0
53254.0,STARLINK-4134,PAYLOAD,2023-02-08 14:50:23,15.08834522,0.0001183,53.2151,204.7651,92.8956,267.2172,9.2407e-06,-1.41e-06,0.0,0 STARLINK-4134,1 53254U 22086N   23039.61833069 -.00000141  00000-0  92407-5 0  9994,2 53254  53.2151 204.7651 0001183  92.8956 267.2172 15.08834522 31037,6917.897,95.438,540.581,538.944,0.0
53254.0,STARLINK-4134,PAYLOAD,2023-02-08 19:36:32,15.08844916,0.0001231,53.2151,203.8731,83.4551,276.6581,6.032e-05,6.72e-06,0.0,0 STARLINK-4134,1 53254U 22086N   23039.81704475  .00000672  00000-0  60320-4 0  9990,2 53254  53.2151 203.8731 0001231  83.4551 276.6581 15.08844916 31268,6917.865,95.437,540.582,538.879,0.0
53254.0,STARLINK-4134,PAYLOAD,2023-02-09 03:33:28,15.0883969,0.0001033,53.214,202.3849,91.7882,268.3228,-2.905e-06,-3.34e-06,0.0,0 STARLINK-4134,1 53254U 22086N   23040.14824466 -.00000334  00000-0 -29050-5 0  9994,2 53254  53.2140 202.3849 0001033  91.7882 268.3228 15.08839690 31112,6917.881,95.438,540.461,539.032,0.0
53254.0,STARLINK-4134,PAYLOAD,2023-02-09 16:16:34,15.08836919,0.0001104,53.215,200.006,82.3447,277.7671,-2.4227e-05,-6.73e-06,0.0,0 STARLINK-4134,1 53254U 22086N   23040.67817360 -.00000673  00000-0 -24227-4 0  9993,2 53254  53.2150 200.0060 0001104  82.3447 277.7671 15.08836919 31190,6917.89,95.438,540.519,538.991,0.0
53254.0,STARLINK-4134,PAYLOAD,2023-02-10 03:24:15,15.08846486,0.000114,53.2148,197.9258,80.0359,280.0762,4.48e-05,4.25e-06,0.0,0 STARLINK-4134,1 53254U 22086N   23041.14184594  .00000425  00000-0  44800-4 0  9994,2 53254  53.2148 197.9258 0001140  80.0359 280.0762 15.08846486 31465,6917.861,95.437,540.514,538.937,0.0
53254.0,STARLINK-4134,PAYLOAD,2023-02-10 16:07:20,15.08841657,0.0001217,53.215,195.5458,80.5912,279.5217,0.00013376,1.842e-05,0.0,0 STARLINK-4134,1 53254U 22086N   23041.67176985  .00001842  00000-0  13376-3 0  9994,2 53254  53.2150 195.5458 0001217  80.5912 279.5217 15.08841657 31541,6917.875,95.437,540.582,538.898,0.0
53254.0,STARLINK-4134,PAYLOAD,2023-02-11 03:15:02,15.08840506,0.00011,53.2146,193.4638,78.711,281.4006,7.517e-05,9.09e-06,0.0,0 STARLINK-4134,1 53254U 22086N   23042.13544980  .00000909  00000-0  75170-4 0  9994,2 53254  53.2146 193.4638 0001100  78.7110 281.4006 15.08840506 31419,6917.879,95.438,540.505,538.983,0.0
53254.0,STARLINK-4134,PAYLOAD,2023-02-11 12:47:22,15.08831661,0.0001055,53.2151,191.6805,79.2584,280.8526,7.4116e-05,8.92e-06,0.0,0 STARLINK-4134,1 53254U 22086N   23042.53289774  .00000892  00000-0  74116-4 0  9995,2 53254  53.2151 191.6805 0001055  79.2584 280.8526 15.08831661 31671,6917.906,95.438,540.501,539.041,0.0
53254.0,STARLINK-4134,PAYLOAD,2023-02-12 12:38:09,15.08834017,0.0001146,53.2155,187.2196,85.7901,274.3222,7.4627e-05,9e-06,0.0,0 STARLINK-4134,1 53254U 22086N   23043.52649747  .00000900  00000-0  74627-4 0  9992,2 53254  53.2155 187.2196 0001146  85.7901 274.3222 15.08834017 31821,6917.899,95.438,540.556,538.971,0.0
53254.0,STARLINK-4134,PAYLOAD,2023-02-12 18:59:40,15.08850298,0.0001226,53.215,186.0303,83.9104,276.2028,0.00015724,2.216e-05,0.0,0 STARLINK-4134,1 53254U 22086N   23043.79144578  .00002216  00000-0  15724-3 0  9997,2 53254  53.2150 186.0303 0001226  83.9104 276.2028 15.08850298 31663,6917.849,95.437,540.562,538.866,0.0
53254.0,STARLINK-4134,PAYLOAD,2023-02-13 02:56:37,15.08845292,0.0001115,53.2144,184.5455,82.287,277.8249,-2.5728e-05,-6.97e-06,0.0,0 STARLINK-4134,1 53254U 22086N   23044.12265163 -.00000697  00000-0 -25728-4 0  9998,2 53254  53.2144 184.5455 0001115  82.2870 277.8249 15.08845292 31712,6917.864,95.437,540.501,538.958,0.0
53254.0,STARLINK-4134,PAYLOAD,2023-02-13 09:18:10,15.08834516,0.0001064,53.2163,183.3548,90.8995,269.2119,8.7364e-05,1.103e-05,0.0,0 STARLINK-4134,1 53254U 22086N   23044.38761784  .00001103  00000-0  87364-4 0  9991,2 53254  53.2163 183.3548 0001064  90.8995 269.2119 15.08834516 31751,6917.897,95.438,540.498,539.026,0.0
53254.0,STARLINK-4134,PAYLOAD,2023-02-13 18:50:28,15.0885245,0.0001527,53.2144,181.5709,92.3636,267.7531,7.0539e-05,8.35e-06,0.0,0 STARLINK-4134,1 53254U 22086N   23044.78504666  .00000835  00000-0  70539-4 0  9996,2 53254  53.2144 181.5709 0001527  92.3636 267.7531 15.08852450 31817,6917.842,95.437,540.764,538.651,0.0
53254.0,STARLINK-4134,PAYLOAD,2023-02-14 12:19:43,15.08839785,0.000152,53.2153,178.2987,111.4498,248.6657,0.00015472,2.175e-05,0.0,0 STARLINK-4134,1 53254U 22086N   23045.51369287  .00002175  00000-0  15472-3 0  9999,2 53254  53.2153 178.2987 0001520 111.4498 248.6657 15.08839785 32128,6917.881,95.438,540.798,538.695,0.0
53254.0,STARLINK-4134,PAYLOAD,2023-02-14 18:41:14,15.08855184,9.69e-05,53.2161,177.1098,92.1018,268.0085,0.000188,2.707e-05,0.0,0 STARLINK-4134,1 53254U 22086N   23045.77864117  .00002707  00000-0  18800-3 0  9998,2 53254  53.2161 177.1098 0000969  92.1018 268.0085 15.08855184 32163,6917.834,95.437,540.369,539.029,0.0
53254.0,STARLINK-4134,PAYLOAD,2023-02-15 12:10:29,15.08853601,0.0001674,53.2164,173.8387,134.6112,225.5017,0.00021542,3.143e-05,0.0,0 STARLINK-4134,1 53254U 22086N   23046.50728144  .00003143  00000-0  21542-3 0  9991,2 53254  53.2164 173.8387 0001674 134.6112 225.5017 15.08853601 32076,6917.839,95.437,540.862,538.546,0.0
53254.0,STARLINK-4134,PAYLOAD,2023-02-15 15:21:15,15.08860058,0.0001057,53.2147,173.2414,113.3016,246.8087,0.00021707,3.17e-05,0.0,0 STARLINK-4134,1 53254U 22086N   23046.63975777  .00003170  00000-0  21707-3 0  9994,2 53254  53.2147 173.2414 0001057 113.3016 246.8087 15.08860058 32295,6917.819,95.436,540.415,538.953,0.0
53254.0,STARLINK-4134,PAYLOAD,2023-02-16 15:12:01,15.08864795,7.34e-05,53.2161,168.7814,58.3701,301.7363,0.00019715,2.853e-05,0.0,0 STARLINK-4134,1 53254U 22086N   23047.63334997  .00002853  00000-0  19715-3 0  9991,2 53254  53.2161 168.7814 0000734  58.3701 301.7363 15.08864795 32249,6917.805,95.436,540.177,539.162,0.0
53254.0,STARLINK-4134,PAYLOAD,2023-02-17 10:16:41,15.08837179,6.31e-05,53.2143,165.2129,352.6209,7.4774,-0.00017336,-3.045e-05,0.0,0 STARLINK-4134,1 53254U 22086N   23048.42826025 -.00003045  00000-0 -17336-3 0  9990,2 53254  53.2143 165.2129 0000631 352.6209   7.4774 15.08837179 32364,6917.889,95.438,540.191,539.317,0.0
53254.0,STARLINK-4134,PAYLOAD,2023-02-17 16:38:16,15.08740244,0.0001645,53.2158,164.0278,81.3817,278.7361,0.0013117,0.00020592,0.0,0 STARLINK-4134,1 53254U 22086N   23048.69324403  .00020592  00000-0  13117-2 0  9998,2 53254  53.2158 164.0278 0001645  81.3817 278.7361 15.08740244 32405,6918.185,95.444,541.188,538.912,0.0
53254.0,STARLINK-4134,PAYLOAD,2023-02-18 08:32:05,15.08835665,0.0001188,53.2158,161.054,68.7527,291.3592,-5.5748e-05,-1.175e-05,0.0,0 STARLINK-4134,1 53254U 22086N   23049.35562193 -.00001175  00000-0 -55748-4 0  9998,2 53254  53.2158 161.0540 0001188  68.7527 291.3592 15.08835665 32503,6917.894,95.438,540.58,538.937,0.0
53254.0,STARLINK-4134,PAYLOAD,2023-02-19 14:44:25,15.08840844,0.0001387,53.2156,155.4038,74.2958,285.8187,0.00021164,3.082e-05,0.0,0 STARLINK-4134,1 53254U 22086N   23050.61417923  .00003082  00000-0  21164-3 0  9990,2 53254  53.2156 155.4038 0001387  74.2958 285.8187 15.08840844 32694,6917.878,95.438,540.702,538.783,0.0
